1 44800U 19080A 26161.27563301 .00000173 00000+0 00000+0 0 9996 
2 44800 0.0511 351.4900 0002096 111.8791 290.0371 1.00275021 23984 
1 44801U 19080B 26162.19756485 .00000092 00000+0 00000+0 0 9996 
2 44801 0.0411 18.9045 0002287 59.3824 263.4159 1.00271022 6722 
1 44868U 19091A 26161.79741338 .00000000 00000+0 00000+0 0 9996 
2 44868 0.0107 325.8885 0000590 259.3585 110.9752 1.00268324 23949 
1 44903U 19095A 26162.06786284 -.00000079 00000+0 00000+0 0 9997 
2 44903 0.2398 81.3860 0001276 355.5865 282.8328 1.00272113 23648 
1 44910U 19097A 26161.41999082 .00000151 00000+0 00000+0 0 9997 
2 44910 4.9007 75.1442 0013823 53.8399 325.7999 1.00275543 23632 
1 44978U 20002A 26160.43444720 -.00000325 00000+0 00000+0 0 9998 
2 44978 0.0306 290.7235 0007543 116.5233 114.4723 1.00273083 23631 
1 45026U 20005A 26160.14438434 -.00000147 00000+0 00000+0 0 9991 
2 45026 0.0531 105.7770 0003408 339.2323 307.4766 1.00269386 23424 
1 45027U 20005B 26160.12939094 .00000067 00000+0 00000+0 0 9998 
2 45027 0.0706 99.2729 0001450 119.5425 92.5263 1.00273234 24250 
1 45245U 20013A 26161.93716788 -.00000305 00000+0 00000+0 0 9998 
2 45245 5.3924 356.8021 0002489 81.1363 294.7507 1.00273056 23176 
1 45246U 20013B 26160.79502436 -.00000326 00000+0 00000+0 0 9998 
2 45246 0.0421 156.7250 0000357 146.7417 9.1642 1.00269964 23207 
1 45344U 20017A 26162.14003939 -.00000125 00000+0 00000+0 0 9993 
2 45344 2.8509 47.2428 0002371 31.5276 311.1998 1.00273157 23193 
1 45465U 20022B 26162.22277212 -.00000281 00000+0 00000+0 0 9992 
2 45465 2.5623 301.0596 0043168 17.1960 159.2688 1.00273940 22957 
1 45807U 20040A 26162.07479620 -.00000337 00000+0 00000+0 0 9994 
2 45807 2.4310 67.4331 0002687 338.6905 350.8043 1.00270320 22009 
1 45863U 20045A 26160.68998834 -.00000301 00000+0 00000+0 0 9990 
2 45863 0.0502 104.3507 0002103 344.4035 191.7177 1.00268962 21789 
1 45920U 20048A 26162.21836494 -.00000345 00000+0 00000+0 0 9999 
2 45920 0.0132 350.8268 0000804 87.0961 16.4819 1.00271252 21588 
1 45985U 20053A 26162.14324608 -.00000263 00000+0 00000+0 0 9996 
2 45985 0.0142 277.0658 0000417 132.1582 358.3545 1.00272071 21588 
1 45986U 20053B 26162.05726723 -.00000119 00000+0 00000+0 0 9991 
2 45986 0.0148 313.1357 0002436 203.3057 203.5815 1.00272574 21561 
1 46112U 20056A 26160.50619905 -.00000333 00000+0 00000+0 0 9995 
2 46112 0.0407 168.6637 0003794 305.2086 76.0750 1.00273071 21314 
1 46113U 20056B 26162.19522484 .00000007 00000+0 00000+0 0 9995 
2 46113 0.0130 324.2334 0000313 184.7134 179.8731 1.00273460 80442 
1 46114U 20056C 26162.24196549 .00000054 00000+0 00000+0 0 9993 
2 46114 0.0018 1.2399 0001952 75.7680 144.7071 1.00273396 21234 
1 46610U 20071A 26162.29005998 -.00000346 00000+0 00000+0 0 9998 
2 46610 0.5052 84.9096 0041303 123.4676 273.8838 1.00273876 20866 
1 46916U 20082A 26162.29144666 -.00000339 00000+0 00000+0 0 9997 
2 46916 0.7989 326.6033 0001098 95.8871 67.0112 1.00272642 20597 
1 47202U 20089A 26162.07080951 -.00000219 00000+0 00000+0 0 9992 
2 47202 0.0208 284.4196 0002183 146.4729 304.8238 1.00272303 20354 
1 47240U 20096A 26161.89339189 -.00000188 00000+0 00000+0 0 9996 
2 47240 0.0421 136.2639 0004032 351.8138 7.6481 1.00270630 7387 
1 47256U 20099A 26162.06924951 -.00000147 00000+0 00000+0 0 9998 
2 47256 0.0819 97.7322 0003687 180.4984 89.1141 1.00271775 20132 
1 47306U 21001A 26161.06091502 .00000172 00000+0 00000+0 0 9991 
2 47306 0.0226 63.8245 0000130 109.3639 138.1054 1.00271427 19898 
1 47321U 21003A 26162.14029939 -.00000139 00000+0 00000+0 0 9999 
2 47321 1.7611 338.9062 0003355 108.5055 304.1396 1.00271828 19900 
1 47613U 21010A 26161.80304674 .00000062 00000+0 00000+0 0 9999 
2 47613 0.2680 264.4395 0003644 214.2589 248.1189 1.00277302 19746 
1 48618U 21042A 26162.10580839 -.00000255 00000+0 00000+0 0 9998 
2 48618 5.1119 329.0732 0001434 121.9047 300.3866 1.00271698 18715 
1 48808U 21047A 26162.00222611 -.00000311 00000+0 00000+0 0 9997 
2 48808 0.1370 76.6960 0005089 285.8804 2.0772 1.00262734 18509 
1 48838U 21049A 26162.10724039 -.00000188 00000+0 00000+0 0 9996 
2 48838 0.0193 12.8634 0004797 19.6615 180.4027 1.00270427 18526 
1 49011U 21063A 26161.72960359 .00000125 00000+0 00000+0 0 9990 
2 49011 1.5763 80.7547 0000733 317.9188 139.8896 1.00271048 18017 
