OBJECT_NAME,OBJECT_ID,EPOCH,MEAN_MOTION,ECCENTRICITY,INCLINATION,RA_OF_ASC_NODE,ARG_OF_PERICENTER,MEAN_ANOMALY,EPHEMERIS_TYPE,CLASSIFICATION_TYPE,NORAD_CAT_ID,ELEMENT_SET_NO,REV_AT_EPOCH,BSTAR,MEAN_MOTION_DOT,MEAN_MOTION_DDOT
TIBA-1,2019-080A,2026-06-10T06:36:54.692064,1.00275021,.0002096,0.0511,351.4900,111.8791,290.0371,0,U,44800,999,2398,0,.173E-5,0
INMARSAT GX5,2019-080B,2026-06-11T04:44:29.603040,1.00271022,.00022874,0.0411,18.9045,59.3824,263.4159,0,U,44801,999,672,0,.92E-6,0
JCSAT-18 (KACIFIC 1),2019-091A,2026-06-10T19:08:16.516032,1.00268324,.00005905,0.0107,325.8885,259.3585,110.9752,0,U,44868,999,2394,0,0,0
ELEKTRO-L 3,2019-095A,2026-06-11T01:37:43.349376,1.00272113,.00012762,0.2398,81.3860,355.5865,282.8328,0,U,44903,999,2364,0,-.79E-6,0
SHIJIAN-20 (SJ-20),2019-097A,2026-06-10T10:04:47.206848,1.00275543,.0013823,4.9007,75.1442,53.8399,325.7999,0,U,44910,999,2363,0,.151E-5,0
TJS-5,2020-002A,2026-06-09T10:25:36.238080,1.00273083,.0007543,0.0306,290.7235,116.5233,114.4723,0,U,44978,999,2363,0,-.325E-5,0
GSAT-30,2020-005A,2026-06-09T03:27:54.806976,1.00269386,.00034085,0.0531,105.7770,339.2323,307.4766,0,U,45026,999,2342,0,-.147E-5,0
EUTELSAT KONNECT,2020-005B,2026-06-09T03:06:19.377216,1.00273234,.00014502,0.0706,99.2729,119.5425,92.5263,0,U,45027,999,2425,0,.67E-6,0
JCSAT-17,2020-013A,2026-06-10T22:29:31.304832,1.00273056,.00024895,5.3924,356.8021,81.1363,294.7507,0,U,45245,999,2317,0,-.305E-5,0
GEO-KOMPSAT-2B,2020-013B,2026-06-09T19:04:50.104704,1.00269964,.0000357,0.0421,156.7250,146.7417,9.1642,0,U,45246,999,2320,0,-.326E-5,0
BEIDOU-3 G2,2020-017A,2026-06-11T03:21:39.403296,1.00273157,.00023713,2.8509,47.2428,31.5276,311.1998,0,U,45344,999,2319,0,-.125E-5,0
AEHF-6 (USA 298),2020-022B,2026-06-11T05:20:47.511168,1.00273940,.00431689,2.5623,301.0596,17.1960,159.2688,0,U,45465,999,2295,0,-.281E-5,0
BEIDOU-3 G3,2020-040A,2026-06-11T01:47:42.391680,1.00270320,.00026871,2.4310,67.4331,338.6905,350.8043,0,U,45807,999,2200,0,-.337E-5,0
APSTAR-6D,2020-045A,2026-06-09T16:33:34.992576,1.00268962,.00021036,0.0502,104.3507,344.4035,191.7177,0,U,45863,999,2178,0,-.301E-5,0
KOREASAT 116,2020-048A,2026-06-11T05:14:26.730816,1.00271252,.00008049,0.0132,350.8268,87.0961,16.4819,0,U,45920,999,2158,0,-.345E-5,0
EXPRESS 103,2020-053A,2026-06-11T03:26:16.461312,1.00272071,.00004171,0.0142,277.0658,132.1582,358.3545,0,U,45985,999,2158,0,-.263E-5,0
EXPRESS 80,2020-053B,2026-06-11T01:22:27.888672,1.00272574,.00024364,0.0148,313.1357,203.3057,203.5815,0,U,45986,999,2156,0,-.119E-5,0
BSAT-4B,2020-056A,2026-06-09T12:08:55.597920,1.00273071,.00037947,0.0407,168.6637,305.2086,76.0750,0,U,46112,999,2131,0,-.333E-5,0
MEV-2,2020-056B,2026-06-11T04:41:07.426176,1.00273460,.00003131,0.0130,324.2334,184.7134,179.8731,0,U,46113,999,8044,0,.7E-7,0
GALAXY 30 (G-30),2020-056C,2026-06-11T05:48:25.818336,1.00273396,.00019527,0.0018,1.2399,75.7680,144.7071,0,U,46114,999,2123,0,.54E-6,0
GAOFEN-13 01,2020-071A,2026-06-11T06:57:41.182272,1.00273876,.00413038,0.5052,84.9096,123.4676,273.8838,0,U,46610,999,2086,0,-.346E-5,0
TIANTONG-1 2,2020-082A,2026-06-11T06:59:40.991424,1.00272642,.00010983,0.7989,326.6033,95.8871,67.0112,0,U,46916,999,2059,0,-.339E-5,0
LUCAS (JDRS-1),2020-089A,2026-06-11T01:41:57.941664,1.00272303,.00021835,0.0208,284.4196,146.4729,304.8238,0,U,47202,999,2035,0,-.219E-5,0
SXM-7,2020-096A,2026-06-10T21:26:29.059296,1.00270630,.00040324,0.0421,136.2639,351.8138,7.6481,0,U,47240,999,738,0,-.188E-5,0
CMS-01,2020-099A,2026-06-11T01:39:43.157664,1.00271775,.00036878,0.0819,97.7322,180.4984,89.1141,0,U,47256,999,2013,0,-.147E-5,0
TURKSAT 5A,2021-001A,2026-06-10T01:27:43.057728,1.00271427,.00001307,0.0226,63.8245,109.3639,138.1054,0,U,47306,999,1989,0,.172E-5,0
TIANTONG-1 3,2021-003A,2026-06-11T03:22:01.867296,1.00271828,.00033555,1.7611,338.9062,108.5055,304.1396,0,U,47321,999,1990,0,-.139E-5,0
TJS-6,2021-010A,2026-06-10T19:16:23.238336,1.00277302,.00036447,0.2680,264.4395,214.2589,248.1189,0,U,47613,999,1974,0,.62E-6,0
SBIRS GEO-5 (USA 315),2021-042A,2026-06-11T02:32:21.844896,1.00271698,.00014341,5.1119,329.0732,121.9047,300.3866,0,U,48618,999,1871,0,-.255E-5,0
FENGYUN 4B,2021-047A,2026-06-11T00:03:12.335904,1.00262734,.00050899,0.1370,76.6960,285.8804,2.0772,0,U,48808,999,1850,0,-.311E-5,0
SXM-8,2021-049A,2026-06-11T02:34:25.569696,1.00270427,.00047974,0.0193,12.8634,19.6615,180.4027,0,U,48838,999,1852,0,-.188E-5,0
TIANLIAN 1-05,2021-063A,2026-06-10T17:30:37.750176,1.00271048,.00007331,1.5763,80.7547,317.9188,139.8896,0,U,49011,999,1801,0,.125E-5,0
